0 METEOSAT 6 AKM
1 23118U 93073E   13281.82199389 -.00000062  00000-0  10000-3 0  5248
2 23118 013.8026 030.6399 0064564 346.2993 013.5264 00.99974391 70478
0 METEOSAT 6 AKM
1 23118U 93073E   13282.82223304 -.00000055  00000-0  10000-3 0  5257
2 23118 013.8042 030.6293 0064535 346.0690 013.7548 00.99974197 70481
0 METEOSAT 6 AKM
1 23118U 93073E   13288.82348222 -.00000009  00000-0  10000-3 0  5271
2 23118 013.8120 030.5593 0064302 346.0445 013.7579 00.99974434 70545
0 METEOSAT 6 AKM
1 23118U 93073E   13290.82389228  .00000009  00000-0  10000-3 0  5285
2 23118 013.8146 030.5364 0064304 346.1893 013.6066 00.99974660 70562
0 METEOSAT 6 AKM
1 23118U 93073E   13292.82430435  .00000026  00000-0  10000-3 0  5294
2 23118 013.8172 030.5133 0064311 346.2722 013.5215 00.99974991 70589
0 METEOSAT 6 AKM
1 23118U 93073E   13293.82451966  .00000035  00000-0  10000-3 0  5309
2 23118 013.8190 030.5027 0064133 346.1458 013.6432 00.99975102 70596
